TIANHUI 4B              
1 50573U 21134B   24291.19968008  .00013298  00000+0  38863-3 0  9993
2 50573  88.9773  48.1021 0007942 311.6079  48.4493 15.35158369156199
TJS-9                   
1 50574U 21135A   24290.85354282 -.00000301  00000+0  00000+0 0  9990
2 50574   0.0466  55.2259 0001135 223.0283 192.0836  1.00268590 10334
STARLINK-3321           
1 50803U 22001A   24291.19610105  .00001018  00000+0  82053-4 0  9993
2 50803  53.2177 291.8383 0001498  93.3003 266.8160 15.08841062154911
STARLINK-3323           
1 50804U 22001B   24291.16390007  .00001274  00000+0  98119-4 0  9991
2 50804  53.2167 281.9794 0001569  92.5101 267.6071 15.08840180155029
STARLINK-3333           
1 50805U 22001C   24290.29909731 -.00001723  00000+0 -90183-4 0  9999
2 50805  53.2169 285.8676 0001559  97.9705 262.1464 15.08844471153641
STARLINK-3335           
1 50806U 22001D   24291.15654456 -.00000330  00000+0 -26328-5 0  9991
2 50806  53.2173 282.0134 0001482  83.3823 276.7337 15.08835646155040
STARLINK-3355           
1 50808U 22001F   24290.28805927 -.00001340  00000+0 -66121-4 0  9993
2 50808  53.2176 285.9139 0001476 102.6655 257.4502 15.08846632153644
STARLINK-3232           
1 50809U 22001G   24291.15286418 -.00000184  00000+0  65539-5 0  9996
2 50809  53.2169 282.0300 0001410  94.1320 265.9833 15.08839441155055
STARLINK-3347           
1 50811U 22001J   24291.20806154  .00000760  00000+0  65855-4 0  9999
2 50811  53.2169 281.8211 0001500  90.2612 269.8552 15.08840686155062
STARLINK-3338           
1 50812U 22001K   24291.24486874  .00002258  00000+0  15989-3 0  9993
2 50812  53.2165 281.7222 0001197 116.6755 243.4360 15.08849100155035
STARLINK-3349           
1 50813U 22001L   24290.26965390 -.00000853  00000+0 -35493-4 0  9994
2 50813  53.2176 285.9472 0001102 102.3783 257.7332 15.08846879153642
STARLINK-3324           
1 50814U 22001M   24290.32026202 -.00000635  00000+0 -21795-4 0  9990
2 50814  53.2186 295.7697 0001842  82.3728 277.7473 15.08842900153514
STARLINK-3234           
1 50815U 22001N   24291.19241462  .00002052  00000+0  14695-3 0  9997
2 50815  53.2181 291.8540 0001473  76.3108 283.8048 15.08848648154915
STARLINK-3342           
1 50816U 22001P   24291.16298469  .00000276  00000+0  35450-4 0  9993
2 50816  53.2169 291.9839 0001690  98.8228 261.2955 15.08831681154913
STARLINK-3341           
1 50817U 22001Q   24290.32761640  .00000308  00000+0  37463-4 0  9999
2 50817  53.2174 295.7378 0001275  98.9207 261.1929 15.08839449153512
STARLINK-3336           
1 50818U 22001R   24290.30921835  .00000095  00000+0  24038-4 0  9999
2 50818  53.2166 295.8190 0001466  93.2941 266.8219 15.08845973153504
STARLINK-3327           
1 50819U 22001S   24291.17770015  .00000797  00000+0  68153-4 0  9993
2 50819  53.2184 291.9190 0001641 116.5214 243.5947 15.08839681154846
STARLINK-3339           
1 50820U 22001T   24290.43065878 -.00000306  00000+0 -11240-5 0  9991
2 50820  53.2180 295.2700 0002097  94.3737 265.7495 15.08847754153525
STARLINK-3346           
1 50821U 22001U   24290.33864738 -.00000026  00000+0  16434-4 0  9990
2 50821  53.2180 295.5726 0001472  76.0353 284.0803 15.08848853153511
STARLINK-3343           
1 50822U 22001V   24291.15193638  .00001958  00000+0  14108-3 0  9995
2 50822  53.2165 292.0337 0001492 104.7547 255.3611 15.08844068154884
STARLINK-3334           
1 50823U 22001W   24290.39017208  .00000679  00000+0  60761-4 0  9995
2 50823  53.2175 295.4556 0001699  72.8829 287.2349 15.08851282153521
STARLINK-3332           
1 50825U 22001Y   24291.22185676  .00000434  00000+0  45393-4 0  9998
2 50825  53.2176 291.7188 0001715  85.2427 274.8761 15.08843082154918
STARLINK-3329           
1 50827U 22001AA  24290.43801706 -.00000053  00000+0  14754-4 0  9996
2 50827  53.2166 295.2418 0001204  95.7228 264.3902 15.08849459153523
STARLINK-3290           
1 50828U 22001AB  24291.21912197  .00000778  00000+0  66980-4 0  9992
2 50828  53.2172 291.6245 0001488 104.9452 255.1705 15.08842154154924
STARLINK-3294           
1 50829U 22001AC  24290.31290258  .00000317  00000+0  37976-4 0  9992
2 50829  53.2171 295.8006 0001353  92.4098 267.7049 15.08842655153502
STARLINK-3278           
1 50830U 22001AD  24290.46285856 -.00000529  00000+0 -15162-4 0  9998
2 50830  53.2169 305.1284 0001195  85.6041 274.5088 15.08844177153397
STARLINK-3299           
1 50831U 22001AE  24290.40858645  .00000045  00000+0  20913-4 0  9996
2 50831  53.2168 295.4386 0001401  88.2024 271.9129 15.08845842153523
STARLINK-3328           
1 50832U 22001AF  24290.33134586  .00003406  00000+0  23186-3 0  9998
2 50832  53.2166 305.7647 0001771  76.4447 283.6742 15.08856343153377
STARLINK-3331           
1 50834U 22001AH  24291.17677893  .00000809  00000+0  68932-4 0  9999
2 50834  53.2171 301.9204 0001504 108.2570 251.8586 15.08843886154773
STARLINK-3310           
1 50835U 22001AJ  24291.18046804  .00000724  00000+0  63552-4 0  9992
2 50835  53.2173 302.0198 0001669  89.5632 270.5552 15.08845897154755
STARLINK-3330           
1 50836U 22001AK  24290.36443186  .00000373  00000+0  41544-4 0  9993
2 50836  53.2178 305.3519 0001558  75.6526 284.4639 15.08848252153273
STARLINK-3318           
1 50837U 22001AL  24291.20713859  .00004233  00000+0  28388-3 0  9994
2 50837  53.2156 291.7872 0001186 104.9864 255.1260 15.08839298154847
STARLINK-3322           
1 50838U 22001AM  24290.33333740  .00026533  00000+0  13035-2 0  9994
2 50838  53.2156 297.1903 0002729  93.7738 266.3570 15.17900220154697
STARLINK-3320           
1 50839U 22001AN  24290.36349717  .00001330  00000+0  10165-3 0  9999
2 50839  53.2171 305.5767 0001433  95.5472 264.5683 15.08844118153364
STARLINK-3295           
1 50840U 22001AP  24291.22093434 -.00002688  00000+0 -15082-3 0  9991
2 50840  53.2173 301.7238 0001643 109.5140 250.6029 15.08845985154780
STARLINK-3300           
1 50841U 22001AQ  24291.03325770  .00001278  00000+0  98345-4 0  9998
2 50841  53.2162 302.5685 0001496  88.0432 272.0731 15.08841370154776
STARLINK-3302           
1 50842U 22001AR  24290.42238171 -.00002019  00000+0 -10877-3 0  9998
2 50842  53.2166 305.3099 0001540  92.1381 267.9787 15.08843181153371
STARLINK-3325           
1 50843U 22001AS  24291.17309549  .00001119  00000+0  88347-4 0  9996
2 50843  53.2160 301.9391 0001591  94.2987 265.8187 15.08848653154690
STARLINK-3326           
1 50844U 22001AT  24291.20621929  .00000959  00000+0  78290-4 0  9997
2 50844  53.2179 301.7919 0001401  97.0207 263.0944 15.08847343154787
STARLINK-3230           
1 50845U 22001AU  24290.45549652  .00001154  00000+0  90573-4 0  9992
2 50845  53.2163 305.1597 0001429 109.1599 250.9548 15.08847099153399
STARLINK-3308           
1 50846U 22001AV  24291.21359263  .00000275  00000+0  35388-4 0  9991
2 50846  53.2172 301.8741 0001402 103.6217 256.4932 15.08840620154786
STARLINK-3319           
1 50847U 22001AW  24290.91667824  .01087548  00000+0  42979-1 0  9993
2 50847  53.2152 302.7661 0001294  79.5822 195.2511 15.22419420  5850
STARLINK-3315           
1 50848U 22001AX  24290.47022472 -.00000843  00000+0 -34913-4 0  9995
2 50848  53.2171 305.0928 0001317  88.1607 271.9536 15.08839069153398
STARLINK-3311           
1 50849U 22001AY  24291.20989884  .00000737  00000+0  64369-4 0  9995
2 50849  53.2185 301.7771 0001655  81.7491 278.3689 15.08839932154703
STARLINK-3312           
1 50850U 22001AZ  24291.21357969  .00000372  00000+0  41445-4 0  9996
2 50850  53.2172 261.7601 0001417  99.1263 260.9890 15.08839615155344
STARLINK-3314           
1 50851U 22001BA  24290.32668618 -.00000139  00000+0  93635-5 0  9995
2 50851  53.2166 305.6624 0001311 106.2230 253.8907 15.08845717153379
UMBRA-02                
1 50986U 22002C   24291.17172675  .00330181  00000+0  32848-2 0  9990
2 50986  97.3668 357.2507 0008551 198.0303 162.0655 15.64635755153057
ION SCV-004             
1 50993U 22002K   24291.12916645  .00010448  00000+0  46980-3 0  9990
2 50993  97.3740 349.3965 0008632 354.6018   5.5123 15.21270356152548
MDASAT-1A               
1 50995U 22002M   24291.12374335  .00056871  00000+0  12762-2 0  9996
2 50995  97.3712 358.6831 0003522 312.3380  47.7569 15.43193142153195
SICH-2-30 (SICH-2-1)    
1 51030U 22002AY  24291.15163522  .00039826  00000+0  10890-2 0  9995
2 51030  97.3741 357.2112 0004965 328.7586  31.3362 15.37252042153060
MDASAT-1C               
1 51038U 22002BG  24290.64631116  .00059673  00000+0  13457-2 0  9999
2 51038  97.3815 359.3195 0003932 332.9332  27.1709 15.43031532153113
IRIS-A                  
1 51044U 22002BN  24290.14625113  .00047146  00000+0  11399-2 0  9996
2 51044  97.3702 356.8072 0003948 326.4691  33.6305 15.40994357152982
MDASAT-1B               
1 51050U 22002BU  24291.18422048  .00083678  00000+0  15445-2 0  9996
2 51050  97.3767   0.5452 0003239 316.5679  43.5317 15.48800984153258
KEPLER-19               
1 51051U 22002BV  24291.12786880  .00038421  00000+0  10834-2 0  9991
2 51051  97.3754 355.6530 0004078 350.1605   9.9559 15.36305211152962
HYPSO-1                 
1 51053U 22002BX  24291.15647353  .00027173  00000+0  91781-3 0  9990
2 51053  97.3681 353.8715 0005002 352.9072   7.2097 15.30626370152890
KEPLER-16 (ASTRAEUS)    
1 51057U 22002CB  24291.17275473  .00043042  00000+0  11231-2 0  9990
2 51057  97.3785   0.2291 0003110 328.0227  32.0829 15.38689970153269
ETV-A1                  
1 51060U 22002CE  24291.15106398  .00015099  00000+0  61239-3 0  9996
2 51060  97.3763 351.7522 0007360   8.6850 351.4513 15.24694512152680
BRO-5                   
1 51061U 22002CF  24291.16330495  .00015211  00000+0  54108-3 0  9998
2 51061  97.3814 354.1720 0007273   6.7055 353.4281 15.29047411152818
DEWASAT-1               
1 51067U 22002CM  24289.64147897  .00724189  21254-3  23453-2 0  9993
2 51067  97.3623   4.6973 0006749 264.1370  95.9134 15.90778270153443
ICEYE-X14               
1 51070U 22002CQ  24291.17993688  .00031915  00000+0  12596-2 0  9991
2 51070  97.3814 355.8055 0007313  89.8546 270.3530 15.25450574152952
